{
  "norad_id": 64525,
  "name": "KUIPER-00065",
  "history": [
    {
      "epoch": "2026-03-28T20:50:04.702272",
      "apogee_km": 629.9316890912114,
      "perigee_km": 628.9633810601545,
      "latitude_deg": 10.4495583516201,
      "longitude_deg": -4.161441920092329,
      "semi_major_axis_km": 7007.584535075683,
      "eccentricity": 6.909e-05,
      "inclination_deg": 51.9036,
      "raan_deg": 155.8797,
      "arg_perigee_deg": 68.8123,
      "mean_anomaly_deg": 291.2913,
      "mean_motion_rev_day": 14.79960907
    }
  ]
}